SL-3 R/B                
1 13403U 82079B   26035.52159487  .00005502  00000+0  22222-3 0  9998
2 13403  81.1437 232.2304 0024222 279.2031  80.6462 15.24315379372647
SL-14 R/B               
1 13553U 82092B   26035.46161109  .00000701  00000+0  75956-4 0  9995
2 13553  82.5698 172.4688 0021566  54.1526   9.6816 14.86627713323997
SL-3 R/B                
1 13819U 83010B   26035.48726044  .00015071  00000+0  31513-3 0  9994
2 13819  81.1015  42.9191 0017606 157.2346 202.9683 15.45177551352814
SL-3 R/B                
1 14208U 83075B   26035.50525624  .00013179  00000+0  35716-3 0  9998
2 14208  97.6126  38.8539 0021752 354.1966   5.9022 15.37542101325057
COSMOS 1536             
1 14699U 84013A   26035.35635616  .00007852  00000+0  32796-3 0  9997
2 14699  82.5478 140.9649 0015138  44.4379 315.8069 15.23369529267548
SL-14 R/B               
1 14820U 84027B   26035.15872722  .00000503  00000+0  54607-4 0  9999
2 14820  82.5406 276.4670 0019550  84.9019 275.4428 14.85942829242658
SL-8 R/B                
1 15483U 85006B   26035.26992531  .00000315  00000+0  11302-3 0  9991
2 15483  74.0475 322.6421 0019582 246.7299 227.9759 14.37765574149222
SL-12 R/B(2)            
1 15772U 85042D   26035.49290273  .00000080  00000+0  57393-4 0  9991
2 15772  71.1083 157.8619 0035216 181.0410 250.4593 14.21972365109674
SL-14 R/B               
1 15945U 85069B   26035.49025105  .00000571  00000+0  61817-4 0  9993
2 15945  82.5239  56.1590 0017470 305.3571  54.6012 14.86393219167901
SL-16 R/B               
1 16182U 85097B   26035.51602164  .00000114  00000+0  81263-4 0  9997
2 16182  71.0013 210.3895 0009417 298.5771 121.9737 14.16595636 82534
SL-14 R/B               
1 16496U 86006B   26035.40872653  .00000919  00000+0  94934-4 0  9998
2 16496  82.5275 291.0611 0077328  24.1241 336.3565 14.86767441144264
COSMOS 1743             
1 16719U 86034A   26035.22886934  .00036314  00000+0  51791-3 0  9995
2 16719  82.5331 108.8792 0005256  63.9290 296.2505 15.56111748175045
