CCSDS_OMM_VERS = 2.0
CREATION_DATE  = 
ORIGINATOR     = 

OBJECT_NAME    = SL-3 R/B
OBJECT_ID      = 1982-079B
CENTER_NAME    = EARTH
REF_FRAME      = TEME
TIME_SYSTEM    = UTC
MEAN_ELEMENT_THEORY = SGP/SGP4

EPOCH          = 2026-02-04T12:31:05.796768
MEAN_MOTION    = 15.24315379
ECCENTRICITY   = .0024222
INCLINATION    = 81.1437
RA_OF_ASC_NODE = 232.2304
ARG_OF_PERICENTER = 279.2031
MEAN_ANOMALY   = 80.6462

EPHEMERIS_TYPE = 0
CLASSIFICATION_TYPE = U
NORAD_CAT_ID   = 13403
ELEMENT_SET_NO = 999
REV_AT_EPOCH   = 37264
BSTAR          = .22222E-3
MEAN_MOTION_DOT = .5502E-4
MEAN_MOTION_DDOT = 0

CCSDS_OMM_VERS = 2.0
CREATION_DATE  = 
ORIGINATOR     = 

OBJECT_NAME    = SL-14 R/B
OBJECT_ID      = 1982-092B
CENTER_NAME    = EARTH
REF_FRAME      = TEME
TIME_SYSTEM    = UTC
MEAN_ELEMENT_THEORY = SGP/SGP4

EPOCH          = 2026-02-04T11:04:43.198176
MEAN_MOTION    = 14.86627713
ECCENTRICITY   = .0021566
INCLINATION    = 82.5698
RA_OF_ASC_NODE = 172.4688
ARG_OF_PERICENTER = 54.1526
MEAN_ANOMALY   = 9.6816

EPHEMERIS_TYPE = 0
CLASSIFICATION_TYPE = U
NORAD_CAT_ID   = 13553
ELEMENT_SET_NO = 999
REV_AT_EPOCH   = 32399
BSTAR          = .75956E-4
MEAN_MOTION_DOT = .701E-5
MEAN_MOTION_DDOT = 0

CCSDS_OMM_VERS = 2.0
CREATION_DATE  = 
ORIGINATOR     = 

OBJECT_NAME    = SL-3 R/B
OBJECT_ID      = 1983-010B
CENTER_NAME    = EARTH
REF_FRAME      = TEME
TIME_SYSTEM    = UTC
MEAN_ELEMENT_THEORY = SGP/SGP4

EPOCH          = 2026-02-04T11:41:39.302016
MEAN_MOTION    = 15.45177551
ECCENTRICITY   = .0017606
INCLINATION    = 81.1015
RA_OF_ASC_NODE = 42.9191
ARG_OF_PERICENTER = 157.2346
MEAN_ANOMALY   = 202.9683

EPHEMERIS_TYPE = 0
CLASSIFICATION_TYPE = U
NORAD_CAT_ID   = 13819
ELEMENT_SET_NO = 999
REV_AT_EPOCH   = 35281
BSTAR          = .31513E-3
MEAN_MOTION_DOT = .15071E-3
MEAN_MOTION_DDOT = 0

CCSDS_OMM_VERS = 2.0
CREATION_DATE  = 
ORIGINATOR     = 

OBJECT_NAME    = SL-3 R/B
OBJECT_ID      = 1983-075B
CENTER_NAME    = EARTH
REF_FRAME      = TEME
TIME_SYSTEM    = UTC
MEAN_ELEMENT_THEORY = SGP/SGP4

EPOCH          = 2026-02-04T12:07:34.139136
MEAN_MOTION    = 15.37542101
ECCENTRICITY   = .0021752
INCLINATION    = 97.6126
RA_OF_ASC_NODE = 38.8539
ARG_OF_PERICENTER = 354.1966
MEAN_ANOMALY   = 5.9022

EPHEMERIS_TYPE = 0
CLASSIFICATION_TYPE = U
NORAD_CAT_ID   = 14208
ELEMENT_SET_NO = 999
REV_AT_EPOCH   = 32505
BSTAR          = .35716E-3
MEAN_MOTION_DOT = .13179E-3
MEAN_MOTION_DDOT = 0

CCSDS_OMM_VERS = 2.0
CREATION_DATE  = 
ORIGINATOR     = 

OBJECT_NAME    = COSMOS 1536
OBJECT_ID      = 1984-013A
CENTER_NAME    = EARTH
REF_FRAME      = TEME
TIME_SYSTEM    = UTC
MEAN_ELEMENT_THEORY = SGP/SGP4

EPOCH          = 2026-02-04T08:33:09.172224
MEAN_MOTION    = 15.23369529
ECCENTRICITY   = .0015138
INCLINATION    = 82.5478
RA_OF_ASC_NODE = 140.9649
ARG_OF_PERICENTER = 44.4379
MEAN_ANOMALY   = 315.8069

EPHEMERIS_TYPE = 0
CLASSIFICATION_TYPE = U
NORAD_CAT_ID   = 14699
ELEMENT_SET_NO = 999
REV_AT_EPOCH   = 26754
BSTAR          = .32796E-3
MEAN_MOTION_DOT = .7852E-4
MEAN_MOTION_DDOT = 0

CCSDS_OMM_VERS = 2.0
CREATION_DATE  = 
ORIGINATOR     = 

OBJECT_NAME    = SL-14 R/B
OBJECT_ID      = 1984-027B
CENTER_NAME    = EARTH
REF_FRAME      = TEME
TIME_SYSTEM    = UTC
MEAN_ELEMENT_THEORY = SGP/SGP4

EPOCH          = 2026-02-04T03:48:34.031808
MEAN_MOTION    = 14.85942829
ECCENTRICITY   = .00195506
INCLINATION    = 82.5406
RA_OF_ASC_NODE = 276.4670
ARG_OF_PERICENTER = 84.9019
MEAN_ANOMALY   = 275.4428

EPHEMERIS_TYPE = 0
CLASSIFICATION_TYPE = U
NORAD_CAT_ID   = 14820
ELEMENT_SET_NO = 999
REV_AT_EPOCH   = 24265
BSTAR          = .5460716E-4
MEAN_MOTION_DOT = .503E-5
MEAN_MOTION_DDOT = 0

CCSDS_OMM_VERS = 2.0
CREATION_DATE  = 
ORIGINATOR     = 

OBJECT_NAME    = SL-8 R/B
OBJECT_ID      = 1985-006B
CENTER_NAME    = EARTH
REF_FRAME      = TEME
TIME_SYSTEM    = UTC
MEAN_ELEMENT_THEORY = SGP/SGP4

EPOCH          = 2026-02-04T06:28:41.546784
MEAN_MOTION    = 14.37765574
ECCENTRICITY   = .0019582
INCLINATION    = 74.0475
RA_OF_ASC_NODE = 322.6421
ARG_OF_PERICENTER = 246.7299
MEAN_ANOMALY   = 227.9759

EPHEMERIS_TYPE = 0
CLASSIFICATION_TYPE = U
NORAD_CAT_ID   = 15483
ELEMENT_SET_NO = 999
REV_AT_EPOCH   = 14922
BSTAR          = .11302E-3
MEAN_MOTION_DOT = .315E-5
MEAN_MOTION_DDOT = 0

CCSDS_OMM_VERS = 2.0
CREATION_DATE  = 
ORIGINATOR     = 

OBJECT_NAME    = SL-12 R/B(2)
OBJECT_ID      = 1985-042D
CENTER_NAME    = EARTH
REF_FRAME      = TEME
TIME_SYSTEM    = UTC
MEAN_ELEMENT_THEORY = SGP/SGP4

EPOCH          = 2026-02-04T11:49:46.795872
MEAN_MOTION    = 14.21972365
ECCENTRICITY   = .0035216
INCLINATION    = 71.1083
RA_OF_ASC_NODE = 157.8619
ARG_OF_PERICENTER = 181.0410
MEAN_ANOMALY   = 250.4593

EPHEMERIS_TYPE = 0
CLASSIFICATION_TYPE = U
NORAD_CAT_ID   = 15772
ELEMENT_SET_NO = 999
REV_AT_EPOCH   = 10967
BSTAR          = .57393E-4
MEAN_MOTION_DOT = .8E-6
MEAN_MOTION_DDOT = 0

CCSDS_OMM_VERS = 2.0
CREATION_DATE  = 
ORIGINATOR     = 

OBJECT_NAME    = SL-14 R/B
OBJECT_ID      = 1985-069B
CENTER_NAME    = EARTH
REF_FRAME      = TEME
TIME_SYSTEM    = UTC
MEAN_ELEMENT_THEORY = SGP/SGP4

EPOCH          = 2026-02-04T11:45:57.690720
MEAN_MOTION    = 14.86393219
ECCENTRICITY   = .001747
INCLINATION    = 82.5239
RA_OF_ASC_NODE = 56.1590
ARG_OF_PERICENTER = 305.3571
MEAN_ANOMALY   = 54.6012

EPHEMERIS_TYPE = 0
CLASSIFICATION_TYPE = U
NORAD_CAT_ID   = 15945
ELEMENT_SET_NO = 999
REV_AT_EPOCH   = 16790
BSTAR          = .61817E-4
MEAN_MOTION_DOT = .571E-5
MEAN_MOTION_DDOT = 0

CCSDS_OMM_VERS = 2.0
CREATION_DATE  = 
ORIGINATOR     = 

OBJECT_NAME    = SL-16 R/B
OBJECT_ID      = 1985-097B
CENTER_NAME    = EARTH
REF_FRAME      = TEME
TIME_SYSTEM    = UTC
MEAN_ELEMENT_THEORY = SGP/SGP4

EPOCH          = 2026-02-04T12:23:04.269696
MEAN_MOTION    = 14.16595636
ECCENTRICITY   = .0009417
INCLINATION    = 71.0013
RA_OF_ASC_NODE = 210.3895
ARG_OF_PERICENTER = 298.5771
MEAN_ANOMALY   = 121.9737

EPHEMERIS_TYPE = 0
CLASSIFICATION_TYPE = U
NORAD_CAT_ID   = 16182
ELEMENT_SET_NO = 999
REV_AT_EPOCH   = 8253
BSTAR          = .81263E-4
MEAN_MOTION_DOT = .114E-5
MEAN_MOTION_DDOT = 0

CCSDS_OMM_VERS = 2.0
CREATION_DATE  = 
ORIGINATOR     = 

OBJECT_NAME    = SL-14 R/B
OBJECT_ID      = 1986-006B
CENTER_NAME    = EARTH
REF_FRAME      = TEME
TIME_SYSTEM    = UTC
MEAN_ELEMENT_THEORY = SGP/SGP4

EPOCH          = 2026-02-04T09:48:33.972192
MEAN_MOTION    = 14.86767441
ECCENTRICITY   = .0077328
INCLINATION    = 82.5275
RA_OF_ASC_NODE = 291.0611
ARG_OF_PERICENTER = 24.1241
MEAN_ANOMALY   = 336.3565

EPHEMERIS_TYPE = 0
CLASSIFICATION_TYPE = U
NORAD_CAT_ID   = 16496
ELEMENT_SET_NO = 999
REV_AT_EPOCH   = 14426
BSTAR          = .94934E-4
MEAN_MOTION_DOT = .919E-5
MEAN_MOTION_DDOT = 0

CCSDS_OMM_VERS = 2.0
CREATION_DATE  = 
ORIGINATOR     = 

OBJECT_NAME    = COSMOS 1743
OBJECT_ID      = 1986-034A
CENTER_NAME    = EARTH
REF_FRAME      = TEME
TIME_SYSTEM    = UTC
MEAN_ELEMENT_THEORY = SGP/SGP4

EPOCH          = 2026-02-04T05:29:34.310976
MEAN_MOTION    = 15.56111748
ECCENTRICITY   = .0005256
INCLINATION    = 82.5331
RA_OF_ASC_NODE = 108.8792
ARG_OF_PERICENTER = 63.9290
MEAN_ANOMALY   = 296.2505

EPHEMERIS_TYPE = 0
CLASSIFICATION_TYPE = U
NORAD_CAT_ID   = 16719
ELEMENT_SET_NO = 999
REV_AT_EPOCH   = 17504
BSTAR          = .51791243E-3
MEAN_MOTION_DOT = .36314E-3
MEAN_MOTION_DDOT = 0

